{
  "type": "FeatureCollection",
  "features": [
    {
      "type": "Feature",
      "properties": {
        "norad_id": 54259,
        "name": "EUTELSAT 10B",
        "group": "eutelsat",
        "lat": 0.04037352599586873,
        "lon": 140.18760537629177,
        "alt_km": 35783.43060604112,
        "timestamp": "2025-12-04T03:47:54.225522+00:00",
        "meta_object_name": "EUTELSAT 10B",
        "meta_object_id": "2022-157A",
        "meta_epoch": "2025-12-03T04:33:38.732832",
        "meta_mean_motion": 1.00268425,
        "meta_eccentricity": 0.0001038,
        "meta_inclination": 0.0608,
        "meta_ra_of_asc_node": 103.578,
        "meta_arg_of_pericenter": 72.8343,
        "meta_mean_anomaly": 334.2971,
        "meta_ephemeris_type": 0,
        "meta_classification_type": "U",
        "meta_norad_cat_id": 54259,
        "meta_element_set_no": 999,
        "meta_rev_at_epoch": 1106,
        "meta_bstar": 0,
        "meta_mean_motion_dot": 8.7e-07,
        "meta_mean_motion_ddot": 0,
        "tle_line1": "1 54259U 22157A   25337.19003163  .00000087  00000+0  00000+0 0  9998",
        "tle_line2": "2 54259   0.0608 103.5780 0001038  72.8343 334.2971  1.00268425 11069"
      },
      "geometry": {
        "type": "Point",
        "coordinates": [
          140.18760537629177,
          0.04037352599586873
        ]
      }
    },
    {
      "type": "Feature",
      "properties": {
        "norad_id": 59346,
        "name": "EUTELSAT 36D",
        "group": "eutelsat",
        "lat": -0.007547823747774378,
        "lon": 166.03350754813914,
        "alt_km": 35788.30156149657,
        "timestamp": "2025-12-04T03:47:54.225533+00:00",
        "meta_object_name": "EUTELSAT 36D",
        "meta_object_id": "2024-059A",
        "meta_epoch": "2025-12-03T13:55:38.714880",
        "meta_mean_motion": 1.00270882,
        "meta_eccentricity": 6.6e-05,
        "meta_inclination": 0.0224,
        "meta_ra_of_asc_node": 345.8589,
        "meta_arg_of_pericenter": 317.7491,
        "meta_mean_anomaly": 13.8207,
        "meta_ephemeris_type": 0,
        "meta_classification_type": "U",
        "meta_norad_cat_id": 59346,
        "meta_element_set_no": 999,
        "meta_rev_at_epoch": 618,
        "meta_bstar": 0,
        "meta_mean_motion_dot": 0,
        "meta_mean_motion_ddot": 0,
        "tle_line1": "1 59346U 24059A   25337.58030920  .00000000  00000+0  00000+0 0  9992",
        "tle_line2": "2 59346   0.0224 345.8589 0000660 317.7491  13.8207  1.00270882  6187"
      },
      "geometry": {
        "type": "Point",
        "coordinates": [
          166.03350754813914,
          -0.007547823747774378
        ]
      }
    }
  ]
}